NPSAT1                  
1 44340U 19036B   26191.73321961  .00003483  00000+0  47246-3 0  9998
2 44340  23.9992  64.3763 0007645 117.3920 242.7354 14.74797380375973
FORMOSAT 7-3            
1 44343U 19036E   26191.77616230  .00003056  00000+0  16264-3 0  9993
2 44343  24.0004  16.1663 0000575 164.5556 195.4965 15.09974002386814
FORMOSAT 7-1            
1 44349U 19036L   26191.44996202  .00001588  00000+0  11010-3 0  9995
2 44349  23.9968 235.5536 0001067  91.4000 268.6623 14.96602057388147
FORMOSAT 7-4            
1 44350U 19036M   26191.53921867  .00001706  00000+0  12026-3 0  9992
2 44350  23.9991 297.0608 0001518  97.6401 262.4272 14.96600182387577
FORMOSAT 7-2            
1 44351U 19036N   26191.56158078  .00001792  00000+0  12761-3 0  9993
2 44351  24.0002 351.2231 0000928  89.8416 270.2191 14.96598270387099
FORMOSAT 7-6            
1 44353U 19036Q   26191.29447951  .00001710  00000+0  12061-3 0  9999
2 44353  23.9962 173.8340 0001122  25.6762 334.3795 14.96601199385288
FORMOSAT 7-5            
1 44358U 19036V   26191.13850963  .00001758  00000+0  12476-3 0  9990
2 44358  23.9981 113.6352 0000589 104.8160 255.2407 14.96579833385793
METEOR-M2 2             
1 44387U 19038A   26191.84732993 -.00000136  00000+0 -39078-4 0  9993
2 44387  98.9159 179.4827 0000984  12.5438 347.5765 14.24371638364662
GLOBAL-4                
1 44499U 19054E   26191.11304018  .00050072  00000+0  46569-3 0  9992
2 44499  45.0010 103.9034 0004429 154.8461 205.2653 15.66674455383950
ZY-1 02D                
1 44528U 19059A   26191.84004182 -.00000066  00000+0 -72155-5 0  9991
2 44528  98.6716 253.3746 0003315 316.3050  43.7872 14.35267239357730
TAURUS-1 (JINNIUZUO 1)  
1 44530U 19059C   26191.82662574  .00004382  00000+0  70098-3 0  9992
2 44530  98.6432 358.1277 0007728 230.3006 129.7519 14.72345199362124
ZHUHAI-1 03B            
1 44536U 19060C   26191.80384707  .00021837  00000+0  32112-3 0  9996
2 44536  97.5543 350.8712 0008146 222.1210 137.9419 15.55450037379998
ZHUHAI-1 03D            
1 44538U 19060E   26191.84541380  .00022785  00000+0  39101-3 0  9992
2 44538  97.5389 342.8291 0007238 207.1658 152.9216 15.51159206379746
ZHUHAI-1 03E            
1 44539U 19060F   26191.80816624  .00011412  00000+0  27124-3 0  9992
2 44539  97.5630 342.5913 0004428 296.9426  63.1368 15.41828177379404
GAOFEN-7                
1 44703U 19072A   26191.87722907  .00002261  00000+0  10338-3 0  9996
2 44703  97.5711 252.5867 0017706 320.1737  39.8198 15.21495103371245
JILIN-1 GAOFEN 2A       
1 44777U 19075A   26191.85756735  .00008632  00000+0  21885-3 0  9991
2 44777  97.4965 276.2100 0005610  11.5812 348.5562 15.39938969368528
NINGXIA-1 1             
1 44779U 19076A   26191.83913477 -.00000087  00000+0  27990-4 0  9991
2 44779  45.0061  74.1550 0011633 270.5536  89.3965 14.02041649341170
NINGXIA-1 5             
1 44783U 19076E   26191.85161355 -.00000209  00000+0 -51582-4 0  9999
2 44783  45.0055  73.4322 0011409 261.5947  98.3594 14.02088764341092
KL-ALPHA A              
1 44785U 19077A   26191.87994273  .00000046  00000+0  48570-4 0  9997
2 44785  88.9242 219.9734 0012756  47.8028 312.4207 13.56045259328943
CARTOSAT-3              
1 44804U 19081A   26191.86812030  .00001254  00000+0  62513-4 0  9998
2 44804  97.4296 253.3529 0013396  74.8248 285.4467 15.19301599367064
JILIN-1 GAOFEN 2B       
1 44836U 19086A   26191.83347936  .00003577  00000+0  16433-3 0  9992
2 44836  97.4877 263.6786 0012873 232.1169 127.8903 15.20968520364081
TIANQIN 1 (CAS-6)       
1 44879U 19093A   26191.84196234  .00001722  00000+0  16043-3 0  9998
2 44879  97.7797 275.5118 0010359 341.8855  18.1995 14.95544502355589
ETRSS-1                 
1 44880U 19093B   26191.84183339  .00001910  00000+0  17540-3 0  9994
2 44880  97.7814 275.9917 0010503 341.7882  18.2961 14.95991082355596
TIANYAN 01              
1 44881U 19093C   26191.80578844  .00000209  00000+0  29601-4 0  9992
2 44881  97.7521 263.4612 0013959  15.4844 344.6796 14.86554848354920
TIANYAN 02              
1 44882U 19093D   26191.84950818  .00003446  00000+0  24370-3 0  9995
2 44882  97.7943 286.8712 0012055 305.8806  54.1300 15.05505159356175
CBERS 4A                
1 44883U 19093E   26191.86513300  .00000187  00000+0  30712-4 0  9996
2 44883  98.0183 259.3244 0001175 135.0586 225.0721 14.81438318354584
WEILAI 1R               
1 44884U 19093F   26191.85756854  .00002031  00000+0  16424-3 0  9992
2 44884  97.7880 281.7855 0016019 323.1285  36.8836 15.00843183355972
FLORIPASAT-1            
1 44885U 19093G   26191.84389715  .00003115  00000+0  22901-3 0  9991
2 44885  97.7927 286.2523 0011267 359.3959   0.7251 15.04122759356207
