OBJECT_NAME,OBJECT_ID,EPOCH,MEAN_MOTION,ECCENTRICITY,INCLINATION,RA_OF_ASC_NODE,ARG_OF_PERICENTER,MEAN_ANOMALY,EPHEMERIS_TYPE,CLASSIFICATION_TYPE,NORAD_CAT_ID,ELEMENT_SET_NO,REV_AT_EPOCH,BSTAR,MEAN_MOTION_DOT,MEAN_MOTION_DDOT
NPSAT1,2019-036B,2026-07-10T17:35:50.174304,14.74797380,.0007645,23.9992,64.3763,117.3920,242.7354,0,U,44340,999,37597,.47246E-3,.3483E-4,0
FORMOSAT 7-3,2019-036E,2026-07-10T18:37:40.422720,15.09974002,.0000575,24.0004,16.1663,164.5556,195.4965,0,U,44343,999,38681,.16264E-3,.3056E-4,0
FORMOSAT 7-1,2019-036L,2026-07-10T10:47:56.718528,14.96602057,.00010673,23.9968,235.5536,91.4000,268.6623,0,U,44349,999,38814,.11009698E-3,.1588E-4,0
FORMOSAT 7-4,2019-036M,2026-07-10T12:56:28.493088,14.96600182,.0001518,23.9991,297.0608,97.6401,262.4272,0,U,44350,999,38757,.12026E-3,.1706E-4,0
FORMOSAT 7-2,2019-036N,2026-07-10T13:28:40.579392,14.96598270,.0000928,24.0002,351.2231,89.8416,270.2191,0,U,44351,999,38709,.12761E-3,.1792E-4,0
FORMOSAT 7-6,2019-036Q,2026-07-10T07:04:03.029664,14.96601199,.00011227,23.9962,173.8340,25.6762,334.3795,0,U,44353,999,38528,.12061403E-3,.171E-4,0
FORMOSAT 7-5,2019-036V,2026-07-10T03:19:27.232032,14.96579833,.00005895,23.9981,113.6352,104.8160,255.2407,0,U,44358,999,38579,.12475775E-3,.1758E-4,0
METEOR-M2 2,2019-038A,2026-07-10T20:20:09.305952,14.24371638,.0000984,98.9159,179.4827,12.5438,347.5765,0,U,44387,999,36466,-.39078E-4,-.136E-5,0
GLOBAL-4,2019-054E,2026-07-10T02:42:46.671552,15.66674455,.00044297,45.0010,103.9034,154.8461,205.2653,0,U,44499,999,38395,.4656949E-3,.50072E-3,0
ZY-1 02D,2019-059A,2026-07-10T20:09:39.613248,14.35267239,.0003315,98.6716,253.3746,316.3050,43.7872,0,U,44528,999,35773,-.72155E-5,-.66E-6,0
TAURUS-1 (JINNIUZUO 1),2019-059C,2026-07-10T19:50:20.463936,14.72345199,.0007728,98.6432,358.1277,230.3006,129.7519,0,U,44530,999,36212,.70098E-3,.4382E-4,0
ZHUHAI-1 03B,2019-060C,2026-07-10T19:17:32.386848,15.55450037,.0008146,97.5543,350.8712,222.1210,137.9419,0,U,44536,999,37999,.32112E-3,.21837E-3,0
ZHUHAI-1 03D,2019-060E,2026-07-10T20:17:23.752320,15.51159206,.0007238,97.5389,342.8291,207.1658,152.9216,0,U,44538,999,37974,.39101E-3,.22785E-3,0
ZHUHAI-1 03E,2019-060F,2026-07-10T19:23:45.563136,15.41828177,.0004428,97.5630,342.5913,296.9426,63.1368,0,U,44539,999,37940,.27124E-3,.11412E-3,0
GAOFEN-7,2019-072A,2026-07-10T21:03:12.591648,15.21495103,.0017706,97.5711,252.5867,320.1737,39.8198,0,U,44703,999,37124,.10338E-3,.2261E-4,0
JILIN-1 GAOFEN 2A,2019-075A,2026-07-10T20:34:53.819040,15.39938969,.000561,97.4965,276.2100,11.5812,348.5562,0,U,44777,999,36852,.21885E-3,.8632E-4,0
NINGXIA-1 1,2019-076A,2026-07-10T20:08:21.244128,14.02041649,.0011633,45.0061,74.1550,270.5536,89.3965,0,U,44779,999,34117,.2799E-4,-.87E-6,0
NINGXIA-1 5,2019-076E,2026-07-10T20:26:19.410720,14.02088764,.0011409,45.0055,73.4322,261.5947,98.3594,0,U,44783,999,34109,-.51582E-4,-.209E-5,0
KL-ALPHA A,2019-077A,2026-07-10T21:07:07.051872,13.56045259,.0012756,88.9242,219.9734,47.8028,312.4207,0,U,44785,999,32894,.4857E-4,.46E-6,0
CARTOSAT-3,2019-081A,2026-07-10T20:50:05.593920,15.19301599,.0013396,97.4296,253.3529,74.8248,285.4467,0,U,44804,999,36706,.62513E-4,.1254E-4,0
JILIN-1 GAOFEN 2B,2019-086A,2026-07-10T20:00:12.616704,15.20968520,.0012873,97.4877,263.6786,232.1169,127.8903,0,U,44836,999,36408,.16433E-3,.3577E-4,0
TIANQIN 1 (CAS-6),2019-093A,2026-07-10T20:12:25.546176,14.95544502,.0010359,97.7797,275.5118,341.8855,18.1995,0,U,44879,999,35558,.16043E-3,.1722E-4,0
ETRSS-1,2019-093B,2026-07-10T20:12:14.404896,14.95991082,.0010503,97.7814,275.9917,341.7882,18.2961,0,U,44880,999,35559,.1754E-3,.191E-4,0
TIANYAN 01,2019-093C,2026-07-10T19:20:20.121216,14.86554848,.0013959,97.7521,263.4612,15.4844,344.6796,0,U,44881,999,35492,.29601E-4,.209E-5,0
TIANYAN 02,2019-093D,2026-07-10T20:23:17.506752,15.05505159,.0012055,97.7943,286.8712,305.8806,54.1300,0,U,44882,999,35617,.2437E-3,.3446E-4,0
CBERS 4A,2019-093E,2026-07-10T20:45:47.491200,14.81438318,.0001175,98.0183,259.3244,135.0586,225.0721,0,U,44883,999,35458,.30712E-4,.187E-5,0
WEILAI 1R,2019-093F,2026-07-10T20:34:53.921856,15.00843183,.0016019,97.7880,281.7855,323.1285,36.8836,0,U,44884,999,35597,.16424E-3,.2031E-4,0
FLORIPASAT-1,2019-093G,2026-07-10T20:15:12.713760,15.04122759,.0011267,97.7927,286.2523,359.3959,0.7251,0,U,44885,999,35620,.22901E-3,.3115E-4,0
